      2.10          N: GNSS NAV DATA                        RINEX VERSION / TYPE
fic2rin                                 08/21/2019 00:18:27 PGM / RUN BY / DATE
                                                            END OF HEADER
11 19  8 20  4  0  0.0-5.304142832756e-04 1.023181539495e-11 0.000000000000e+00
    4.400000000000e+01 4.578125000000e+01 5.598090325789e-09 1.347247313321e+00
    2.117827534676e-06 1.676547795068e-02 6.880611181259e-06 5.153722389221e+03
    1.872000000000e+05 2.551823854446e-07 1.344888650502e+00-3.911554813385e-07
    9.101083074698e-01 2.175000000000e+02 1.928981063130e+00-8.692504934864e-09
    2.914407111040e-10 1.000000000000e+00 2.067000000000e+03 0.000000000000e+00
    2.400000000000e+00 0.000000000000e+00-1.210719347000e-08 4.400000000000e+01
    1.800000000000e+05 4.000000000000e+00
 8 19  8 20  4  0  0.0-3.350898623466e-06-1.477928890381e-12 0.000000000000e+00
    9.700000000000e+01 1.028125000000e+01 4.043382708834e-09-1.866831617396e+00
    5.830079317093e-07 4.380752448924e-03 1.030415296555e-05 5.153542961121e+03
    1.872000000000e+05-5.029141902924e-08 7.337192144189e-01 1.303851604462e-08
    9.703824633875e-01 1.875937500000e+02-2.255812231977e-01-7.811396804603e-09
    2.392956819114e-11 1.000000000000e+00 2.067000000000e+03 0.000000000000e+00
    2.400000000000e+00 0.000000000000e+00 5.122274160385e-09 9.700000000000e+01
    1.800000000000e+05 4.000000000000e+00
27 19  8 20  4  0  0.0-2.929149195552e-05-1.159605744760e-11 0.000000000000e+00
    8.000000000000e+01 1.231250000000e+01 3.788729244352e-09-2.022494327018e+00
    7.301568984985e-07 7.161957793869e-03 1.054815948009e-05 5.153653367996e+03
    1.872000000000e+05-3.911554813385e-08 7.457353119205e-01-7.264316082001e-08
    9.786971718770e-01 1.867187500000e+02 5.171222495202e-01-7.602816687832e-09
    3.821587755898e-11 1.000000000000e+00 2.067000000000e+03 0.000000000000e+00
    2.400000000000e+00 0.000000000000e+00 1.396983861923e-09 8.000000000000e+01
    1.800000000000e+05 4.000000000000e+00
24 19  8 20  4  0  0.0-1.037493348122e-06-5.684341886081e-13 0.000000000000e+00
    6.700000000000e+01 6.171875000000e+01 5.404510833855e-09 2.374759147371e+00
    3.142282366753e-06 8.515993831679e-03 6.008893251419e-06 5.153702583313e+03
    1.872000000000e+05-1.434236764908e-07-1.399685003299e+00-1.303851604462e-07
    9.376975102480e-01 2.510312500000e+02 6.030698028837e-01-8.459638092168e-09
    3.289422731946e-10 1.000000000000e+00 2.067000000000e+03 0.000000000000e+00
    3.400000000000e+00 0.000000000000e+00 2.793967723846e-09 6.700000000000e+01
    1.800000000000e+05 4.000000000000e+00
30 19  8 20  4  0  0.0-2.323184162378e-05-7.844391802792e-12 0.000000000000e+00
    9.300000000000e+01 5.012500000000e+01 5.440940922743e-09 1.416405498631e+00
    2.777203917503e-06 4.210650804453e-03 5.209818482399e-06 5.153765165329e+03
    1.872000000000e+05 5.960464477539e-08-1.305343442508e+00 8.381903171539e-08
    9.399381697062e-01 2.682500000000e+02-2.908360994966e+00-8.630002331380e-09
    1.285767843106e-10 1.000000000000e+00 2.067000000000e+03 0.000000000000e+00
    2.400000000000e+00 0.000000000000e+00 3.725290298462e-09 9.300000000000e+01
    1.800000000000e+05 4.000000000000e+00
23 19  8 20  4  0  0.0-1.713149249554e-04 1.932676241267e-12 0.000000000000e+00
    6.500000000000e+01-6.906250000000e+00 4.764127016442e-09 2.903189171402e+00
   -4.153698682785e-07 1.324835978448e-02 1.108646392822e-05 5.153780086517e+03
    1.872000000000e+05 1.117587089539e-08-2.414067216344e+00-1.769512891769e-07
    9.434940144614e-01 1.588125000000e+02-2.233700722601e+00-7.852112786301e-09
    1.482204596914e-10 1.000000000000e+00 2.067000000000e+03 0.000000000000e+00
    2.400000000000e+00 0.000000000000e+00-2.002343535423e-08 6.500000000000e+01
    1.800000000000e+05 4.000000000000e+00
15 19  8 20  4  0  0.0-2.929260954261e-04 2.614797267597e-12 0.000000000000e+00
    9.800000000000e+01-6.093750000000e+00 5.049496046064e-09-2.905514068609e+00
   -5.979090929031e-07 1.160782482475e-02 1.192279160023e-05 5.153752227783e+03
    1.872000000000e+05 4.284083843231e-08-2.490325455114e+00-2.216547727585e-07
    9.282500511234e-01 1.323125000000e+02 7.997877357638e-01-8.072836266034e-09
    1.100045821324e-10 1.000000000000e+00 2.067000000000e+03 0.000000000000e+00
    3.400000000000e+00 0.000000000000e+00-1.071020960808e-08 9.800000000000e+01
    1.800000000000e+05 4.000000000000e+00
14 19  8 20  4  0  0.0-6.568618118763e-05 1.932676241267e-12 0.000000000000e+00
    4.900000000000e+01 5.593750000000e+00 4.358752988129e-09-2.269807653251e+00
    2.998858690262e-07 1.079160172958e-02 1.134909689426e-05 5.153743200302e+03
    1.872000000000e+05 1.452863216400e-07-2.314611665529e+00 1.303851604462e-08
    9.605602002622e-01 1.561250000000e+02-1.930783584475e+00-7.750679989789e-09
    2.739399821284e-10 1.000000000000e+00 2.067000000000e+03 0.000000000000e+00
    2.400000000000e+00 0.000000000000e+00-9.778887033463e-09 4.900000000000e+01
    1.800000000000e+05 4.000000000000e+00
13 19  8 20  4  0  0.0-4.878640174866e-05 1.932676241267e-12 0.000000000000e+00
    7.300000000000e+01 1.931250000000e+01 4.255177245212e-09-2.922363063740e+00
    7.990747690201e-07 3.650341182947e-03 1.134537160397e-05 5.153672695160e+03
    1.872000000000e+05 5.401670932770e-08-2.269617355404e+00-4.097819328308e-08
    9.679489898635e-01 1.641250000000e+02 1.224251100664e+00-7.767109245562e-09
    2.314382117591e-10 1.000000000000e+00 2.067000000000e+03 0.000000000000e+00
    2.400000000000e+00 0.000000000000e+00-1.117587089539e-08 7.300000000000e+01
    1.800000000000e+05 4.000000000000e+00
19 19  8 20  4  0  0.0-2.785683609545e-04 5.002220859751e-12 0.000000000000e+00
    8.000000000000e+01 2.853125000000e+01 3.828730910582e-09 6.837459562379e-01
    1.480802893639e-06 9.515254409052e-03 1.068413257599e-05 5.153644540787e+03
    1.872000000000e+05-1.061707735062e-07 8.484877812304e-01-1.508742570877e-07
    9.821633265877e-01 1.932500000000e+02 1.483115423242e+00-7.791753129222e-09
   -7.178870457341e-11 1.000000000000e+00 2.067000000000e+03 0.000000000000e+00
    2.400000000000e+00 0.000000000000e+00-1.536682248116e-08 8.000000000000e+01
    1.800000000000e+05 4.000000000000e+00
32 19  8 20  4  0  0.0 2.578925341368e-05 1.432454155292e-11 0.000000000000e+00
    9.400000000000e+01-6.093750000000e+00 4.499473135402e-09-1.311455070979e+00
   -2.309679985046e-07 3.222485887818e-03 1.150183379650e-05 5.153625398636e+03
    1.872000000000e+05 5.401670932770e-08-2.401041259177e+00-7.450580596924e-09
    9.569018927247e-01 1.543750000000e+02-2.489538040921e+00-7.949259690002e-09
    1.575065607805e-10 1.000000000000e+00 2.067000000000e+03 0.000000000000e+00
    2.400000000000e+00 0.000000000000e+00 4.656612873077e-10 9.400000000000e+01
    1.800000000000e+05 4.000000000000e+00
26 19  8 20  4  0  0.0 1.924717798829e-05 8.981260180008e-12 0.000000000000e+00
    5.600000000000e+01-3.725000000000e+01 4.989493546719e-09-1.355387704881e-01
   -2.091750502586e-06 3.805791959167e-03 5.930662155151e-06 5.153652847290e+03
    1.872000000000e+05 5.960464477539e-08-3.260937323243e-01 5.401670932770e-08
    9.505994412195e-01 2.594375000000e+02 1.389327535983e-01-8.433208419838e-09
   -4.878774649119e-10 1.000000000000e+00 2.067000000000e+03 0.000000000000e+00
    2.400000000000e+00 0.000000000000e+00 7.450580596924e-09 5.600000000000e+01
    1.800000000000e+05 4.000000000000e+00
18 19  8 20  4  0  0.0 7.922993972898e-05 2.955857780762e-12 0.000000000000e+00
    5.900000000000e+01 3.500000000000e+01 4.660908431259e-09 1.821541648601e+00
    1.542270183563e-06 1.569543988444e-02 5.334615707397e-06 5.153678653717e+03
    1.872000000000e+05 8.381903171539e-08 1.744441841336e+00-3.892928361893e-07
    9.549355538131e-01 2.715625000000e+02 1.422852362095e+00-8.227485564941e-09
    3.267993267894e-10 1.000000000000e+00 2.067000000000e+03 0.000000000000e+00
    2.400000000000e+00 0.000000000000e+00-5.587935447693e-09 5.900000000000e+01
    1.800000000000e+05 4.000000000000e+00
20 19  8 20  4  0  0.0 5.265362560749e-04 1.136868377216e-13 0.000000000000e+00
    4.300000000000e+01-6.256250000000e+01 5.367009271765e-09 1.703461592630e+00
   -3.259629011154e-06 4.715549759567e-03 5.088746547699e-06 5.153621135712e+03
    1.872000000000e+05 5.401670932770e-08 2.719042269127e+00 9.499490261078e-08
    9.316804960038e-01 2.658125000000e+02 2.413254960339e+00-8.556070680401e-09
   -1.757216052245e-10 1.000000000000e+00 2.067000000000e+03 0.000000000000e+00
    2.400000000000e+00 0.000000000000e+00-8.847564458847e-09 4.300000000000e+01
    1.800000000000e+05 4.000000000000e+00
12 19  8 20  4  0  0.0 2.123587764800e-04-3.751665644813e-12 0.000000000000e+00
    1.090000000000e+02-3.915625000000e+01 4.257320191617e-09 7.591818946075e-01
   -2.041459083557e-06 7.498240214773e-03 7.255002856255e-06 5.153592172623e+03
    1.872000000000e+05-8.754432201385e-08-2.306496418605e-01 8.009374141693e-08
    9.820190536067e-01 2.515312500000e+02 1.105530046655e+00-8.084622471263e-09
   -5.371652322309e-10 1.000000000000e+00 2.067000000000e+03 0.000000000000e+00
    2.400000000000e+00 0.000000000000e+00-1.257285475731e-08 1.090000000000e+02
    1.800000000000e+05 4.000000000000e+00
29 19  8 20  4  0  0.0 1.203366555274e-04-1.011812855722e-11 0.000000000000e+00
    1.030000000000e+02 2.250000000000e+01 3.741584423438e-09-1.710181713099e+00
    1.093372702599e-06 1.217697164975e-03 1.128762960434e-05 5.153712337494e+03
    1.872000000000e+05 7.450580596924e-09 8.136787924620e-01 2.421438694000e-08
    9.857768147040e-01 1.739062500000e+02 1.937832008630e+00-7.669962341861e-09
   -3.214419607765e-12 1.000000000000e+00 2.067000000000e+03 0.000000000000e+00
    3.400000000000e+00 0.000000000000e+00-9.778887033463e-09 1.030000000000e+02
    1.800000000000e+05 4.000000000000e+00
